H1 CPF 01  gfz 2022 05 16 00  6361 tandemx   
H2 1003001  6202 36605    2022 05 16 00 59 42 2022 05 21 00 00 42   120 1 1  0 0 0
H9
10 0 59715  53262.000000  0    4557068.386   5165756.628   -130273.240
10 0 59715  53382.000000  0    4660037.575   5013771.576    773336.265
10 0 59715  53502.000000  0    4678111.844   4773082.410   1663330.974
10 0 59715  53622.000000  0    4609450.431   4449375.612   2524034.758
10 0 59715  53742.000000  0    4453857.542   4049824.736   3340287.231
10 0 59715  53862.000000  0    4212807.629   3582931.297   4097718.529
10 0 59715  53982.000000  0    3889437.070   3058340.855   4783005.979
10 0 59715  54102.000000  0    3488504.015   2486640.481   5384110.806
10 0 59715  54222.000000  0    3016312.222   1879139.493   5890488.978
10 0 59715  54342.000000  0    2480606.713   1247642.290   6293270.658
10 0 59715  54462.000000  0    1890442.446    604215.688   6585409.615
10 0 59715  54582.000000  0    1256027.823    -39041.851   6761799.844
10 0 59715  54702.000000  0     588546.002   -670226.566   6819361.099
10 0 59715  54822.000000  0    -100043.320  -1277850.291   6757089.640
10 0 59715  54942.000000  0    -797218.475  -1851049.254   6576074.043
10 0 59715  55062.000000  0   -1490123.225  -2379778.464   6279476.123
10 0 59715  55182.000000  0   -2165801.685  -2854987.412   5872478.066
10 0 59715  55302.000000  0   -2811439.339  -3268776.685   5362199.446
10 0 59715  55422.000000  0   -3414609.576  -3614533.859   4757580.225
10 0 59715  55542.000000  0   -3963517.793  -3887042.943   4069228.040
10 0 59715  55662.000000  0   -4447236.085  -4082566.117   3309235.130
10 0 59715  55782.000000  0   -4855925.311  -4198896.588   2490967.957
10 0 59715  55902.000000  0   -5181040.788  -4235381.688   1628831.378
10 0 59715  56022.000000  0   -5415514.816  -4192913.562    738010.014
10 0 59715  56142.000000  0   -5553911.327  -4073887.767   -165806.001
10 0 59715  56262.000000  0   -5592548.887  -3882131.249  -1066705.951
10 0 59715  56382.000000  0   -5529588.371  -3622800.895  -1948848.665
10 0 59715  56502.000000  0   -5365081.547  -3302254.461  -2796749.607
10 0 59715  56622.000000  0   -5100981.595  -2927899.622  -3595557.542
10 0 59715  56742.000000  0   -4741116.120  -2508024.566  -4331316.312
10 0 59715  56862.000000  0   -4291123.883  -2051614.819  -4991206.921
10 0 59715  56982.000000  0   -3758356.865  -1568161.020  -5563765.576
10 0 59715  57102.000000  0   -3151751.077  -1067461.605  -6039074.344
10 0 59715  57222.000000  0   -2481669.623   -559425.220  -6408921.975
10 0 59715  57342.000000  0   -1759721.006    -53877.181  -6666934.252
10 0 59715  57462.000000  0    -998556.367    439626.289  -6808671.774
10 0 59715  57582.000000  0    -211651.243    911973.332  -6831697.445
10 0 59715  57702.000000  0     586927.339   1354660.364  -6735613.419
10 0 59715  57822.000000  0    1382765.042   1759940.367  -6522068.958
10 0 59715  57942.000000  0    2161355.345   2120956.640  -6194736.334
10 0 59715  58062.000000  0    2908359.121   2431857.873  -5759254.388
10 0 59715  58182.000000  0    3609865.271   2687893.079  -5223140.114
10 0 59715  58302.000000  0    4252648.669   2885485.511  -4595671.233
10 0 59715  58422.000000  0    4824423.256   3022284.648  -3887737.150
10 0 59715  58542.000000  0    5314082.734   3097193.506  -3111658.699
10 0 59715  58662.000000  0    5711923.348   3110371.494  -2280981.172
10 0 59715  58782.000000  0    6009846.253   3063212.685  -1410241.328
10 0 59715  58902.000000  0    6201530.696   2958297.019   -514711.757
10 0 59715  59022.000000  0    6282574.805   2799317.363    389871.106
10 0 59715  59142.000000  0    6250598.670   2590981.608   1287590.704
10 0 59715  59262.000000  0    6105307.742   2338895.347   2162637.603
10 0 59715  59382.000000  0    5848515.130   2049426.714   2999597.393
10 0 59715  59502.000000  0    5484119.849   1729555.354   3783730.757
10 0 59715  59622.000000  0    5018042.737   1386711.038   4501239.436
10 0 59715  59742.000000  0    4458121.825   1028605.595   5139510.928
10 0 59715  59862.000000  0    3813972.984    663062.941   5687340.298
10 0 59715  59982.000000  0    3096814.547    297850.013   6135125.119
10 0 59715  60102.000000  0    2319263.374    -59485.459   6475026.888
10 0 59715  60222.000000  0    1495108.622   -401768.056   6701102.207
10 0 59715  60342.000000  0     639063.991   -722337.097   6809402.487
10 0 59715  60462.000000  0    -233497.560  -1015175.278   6798038.281
10 0 59715  60582.000000  0   -1106819.787  -1275020.994   6667209.318
10 0 59715  60702.000000  0   -1965046.810  -1497463.083   6419200.168
10 0 59715  60822.000000  0   -2792509.013  -1679015.156   6058342.000
10 0 59715  60942.000000  0   -3574008.680  -1817169.859   5590944.081
10 0 59715  61062.000000  0   -4295104.002  -1910433.565   5025190.552
10 0 59715  61182.000000  0   -4942381.797  -1958339.310   4371002.033
10 0 59715  61302.000000  0   -5503714.346  -1961436.941   3639865.130
10 0 59715  61422.000000  0   -5968494.162  -1921260.496   2844633.029
10 0 59715  61542.000000  0   -6327843.238  -1840274.840   1999300.900
10 0 59715  61662.000000  0   -6574793.216  -1721802.600   1118756.814
10 0 59715  61782.000000  0   -6704427.020  -1569931.432    218511.941
10 0 59715  61902.000000  0   -6713979.874  -1389404.370   -685580.749
10 0 59715  62022.000000  0   -6602896.803  -1185496.326  -1577615.111
10 0 59715  62142.000000  0   -6372845.038   -963880.297  -2441919.996
10 0 59715  62262.000000  0   -6027682.366   -730487.352  -3263340.777
10 0 59715  62382.000000  0   -5573382.037   -491363.020  -4027509.235
10 0 59715  62502.000000  0   -5017916.873   -252523.027  -4721095.056
10 0 59715  62622.000000  0   -4371106.451    -19813.307  -5332034.405
10 0 59715  62742.000000  0   -3644431.594    201222.403  -5849732.843
10 0 59715  62862.000000  0   -2850820.400    405465.041  -6265238.122
10 0 59715  62982.000000  0   -2004413.171    588330.144  -6571382.302
10 0 59715  63102.000000  0   -1120309.324    745863.020  -6762894.600
10 0 59715  63222.000000  0    -214300.167    874818.911  -6836481.899
10 0 59715  63342.000000  0     697406.477    972726.194  -6790877.823
10 0 59715  63462.000000  0    1598467.983   1037931.447  -6626864.399
10 0 59715  63582.000000  0    2472694.280   1069627.204  -6347261.287
10 0 59715  63702.000000  0    3304333.421   1067861.150  -5956882.251
10 0 59715  63822.000000  0    4078351.440   1033526.349  -5462459.751
10 0 59715  63942.000000  0    4780703.176    968332.673  -4872540.445
10 0 59715  64062.000000  0    5398591.372    874760.337  -4197349.253
10 0 59715  64182.000000  0    5920707.253    755995.772  -3448622.116
10 0 59715  64302.000000  0    6337447.331    615850.592  -2639410.467
10 0 59715  64422.000000  0    6641102.712    458665.823  -1783859.477
10 0 59715  64542.000000  0    6826015.287    289202.641   -896961.274
10 0 59715  64662.000000  0    6888693.685    112522.347      5711.033
10 0 59715  64782.000000  0    6827887.972    -66140.796    908281.923
10 0 59715  64902.000000  0    6644620.490   -241512.175   1794860.644
10 0 59715  65022.000000  0    6342170.537   -408410.389   2649830.419
10 0 59715  65142.000000  0    5926012.267   -561878.709   3458132.794
10 0 59715  65262.000000  0    5403708.236   -697310.549   4205538.766
10 0 59715  65382.000000  0    4784764.654   -810565.951   4878903.429
10 0 59715  65502.000000  0    4080447.560   -898077.245   5466398.993
10 0 59715  65622.000000  0    3303567.151   -956938.909   5957720.066
10 0 59715  65742.000000  0    2468236.445   -984982.154   6344260.149
10 0 59715  65862.000000  0    1589608.907   -980832.093   6619256.682
10 0 59715  65982.000000  0     683599.201   -943946.741   6777904.714
10 0 59715  66102.000000  0    -233408.079   -874636.257   6817435.093
10 0 59715  66222.000000  0   -1144854.597   -774063.011   6737158.460
10 0 59715  66342.000000  0   -2034305.947   -644222.215   6538476.039
10 0 59715  66462.000000  0   -2885746.463   -487903.004   6224856.628
10 0 59715  66582.000000  0   -3683867.620   -308630.883   5801781.061
10 0 59715  66702.000000  0   -4414346.614   -110592.519   5276652.862
10 0 59715  66822.000000  0   -5064109.467    101455.989   4658674.590
10 0 59715  66942.000000  0   -5621572.836    322295.324   3958691.286
10 0 59715  67062.000000  0   -6076859.361    546362.319   3189003.072
10 0 59715  67182.000000  0   -6421982.339    767879.678   2363150.728
10 0 59715  67302.000000  0   -6650995.639    980993.284   1495675.562
10 0 59715  67422.000000  0   -6760104.449   1179913.140    601858.638
10 0 59715  67542.000000  0   -6747733.392   1359055.064   -302556.392
10 0 59715  67662.000000  0   -6614548.677   1513179.164  -1201650.047
10 0 59715  67782.000000  0   -6363434.811   1637520.872  -2079615.513
10 0 59715  67902.000000  0   -5999428.462   1727912.888  -2921043.783
10 0 59715  68022.000000  0   -5529608.531   1780893.995  -3711200.806
10 0 59715  68142.000000  0   -4962946.097   1793800.925  -4436287.434
10 0 59715  68262.000000  0   -4310120.608   1764842.659  -5083677.608
10 0 59715  68382.000000  0   -3583307.177   1693155.467  -5642131.303
10 0 59715  68502.000000  0   -2795941.543   1578838.038  -6101979.800
10 0 59715  68622.000000  0   -1962466.980   1422965.880  -6455282.726
10 0 59715  68742.000000  0   -1098066.654   1227585.617  -6695953.433
10 0 59715  68862.000000  0    -218389.373    995688.722  -6819852.023
10 0 59715  68982.000000  0     660727.320    731166.326  -6824847.932
10 0 59715  69102.000000  0    1523534.454    438745.425  -6710854.627
10 0 59715  69222.000000  0    2354648.489    123906.152  -6479831.412
10 0 59715  69342.000000  0    3139319.419   -207217.594  -6135753.216
10 0 59715  69462.000000  0    3863689.435   -547953.292  -5684549.139
10 0 59715  69582.000000  0    4515035.652   -891219.137  -5134009.897
10 0 59715  69702.000000  0    5081997.096  -1229666.042  -4493666.141
99
